      2.10          N: GNSS NAV DATA                        RINEX VERSION / TYPE
fic2rin                                 05/26/2022 00:17:33 PGM / RUN BY / DATE
                                                            END OF HEADER
8  22  5 25  1 59 44.0 -.693630427122D-04 -.147792889038D-11  .000000000000D+00
     .110000000000D+02 -.396250000000D+02  .441375527920D-08  .144458224442D+01
    -.204890966415D-05  .744434830267D-02  .693090260029D-05  .515376589394D+04
     .266384000000D+06  .000000000000D+00  .153739524892D+01  .949949026108D-07
     .963342834296D+00  .247312500000D+03  .168734100635D+00 -.815069665209D-08
    -.381801617856D-09  .100000000000D+01  .221100000000D+04  .000000000000D+00
     .240000000000D+01  .000000000000D+00  .512227416039D-08  .110000000000D+02
     .259200000000D+06  .400000000000D+01
23 22  5 25 18  0  0.0 -.241487286985D-04 -.238742359215D-11  .000000000000D+00
     .840000000000D+02  .197500000000D+02  .461912097636D-08  .641569094671D+00
     .879168510437D-06  .216867087875D-02  .584125518799D-05  .515370633507D+04
     .324000000000D+06  .558793544769D-08 -.265856153162D+01 -.745058059692D-08
     .968859950414D+00  .268281250000D+03  .300137154754D+01 -.819927010394D-08
     .168578450541D-09  .100000000000D+01  .221100000000D+04  .000000000000D+00
     .240000000000D+01  .000000000000D+00 -.838190317154D-08  .840000000000D+02
     .316800000000D+06  .400000000000D+01
32 22  5 25 18  0  0.0 -.135415699333D-03 -.886757334229D-11  .000000000000D+00
     .630000000000D+02 -.592500000000D+02  .458161941427D-08 -.201581863830D+01
    -.300444662571D-05  .599134794902D-02  .694766640663D-05  .515359900856D+04
     .324000000000D+06  .186264514923D-07 -.159104070212D+01 -.199303030968D-06
     .957801853595D+00  .246468750000D+03 -.228466995297D+01 -.801176229349D-08
    -.325370695853D-09  .100000000000D+01  .221100000000D+04  .000000000000D+00
     .240000000000D+01  .000000000000D+00  .465661287308D-09  .630000000000D+02
     .316800000000D+06  .400000000000D+01
30 22  5 25 18  0  0.0 -.529203563929D-03 -.136424205266D-11  .000000000000D+00
     .330000000000D+02  .470625000000D+02  .475626954629D-08  .700449156953D+00
     .251643359661D-05  .585651642177D-02  .109877437353D-04  .515377109337D+04
     .324000000000D+06 -.707805156708D-07 -.519086198024D+00  .229105353355D-06
     .936121654893D+00  .155375000000D+03 -.268758143317D+01 -.812212403335D-08
     .767889128522D-10  .100000000000D+01  .221100000000D+04  .000000000000D+00
     .240000000000D+01  .000000000000D+00  .372529029846D-08  .330000000000D+02
     .316800000000D+06  .400000000000D+01
21 22  5 25 18  0  0.0  .161209143698D-03  .113686837722D-12  .000000000000D+00
     .780000000000D+02 -.141562500000D+02  .424553398639D-08 -.255911383668D+01
    -.478699803352D-06  .242657007184D-01  .104308128357D-04  .515375751305D+04
     .324000000000D+06 -.167638063431D-07  .252563193843D+01  .372529029846D-06
     .960339916984D+00  .173687500000D+03 -.945832500714D+00 -.753174229873D-08
     .528593446610D-10  .100000000000D+01  .221100000000D+04  .000000000000D+00
     .340000000000D+01  .000000000000D+00 -.102445483208D-07  .780000000000D+02
     .316800000000D+06  .400000000000D+01
27 22  5 25 18  0  0.0  .208130571991D-03  .511590769747D-11  .000000000000D+00
     .101000000000D+03 -.578750000000D+02  .450054460860D-08 -.267772630705D+01
    -.317394733429D-05  .105437216116D-01  .558793544769D-05  .515365629196D+04
     .324000000000D+06  .372529029846D-07  .155718159630D+01 -.273808836937D-06
     .972058753920D+00  .278062500000D+03  .683026144952D+00 -.807605068564D-08
    -.212151694112D-09  .100000000000D+01  .221100000000D+04  .000000000000D+00
     .340000000000D+01  .000000000000D+00  .186264514923D-08  .101000000000D+03
     .316800000000D+06  .400000000000D+01
20 22  5 25 18  0  0.0  .514085870236D-03 -.102318153949D-11  .000000000000D+00
     .880000000000D+02  .280000000000D+02  .507592571839D-08  .243651798227D+01
     .143237411976D-05  .478877616115D-02  .639073550701D-05  .515357764435D+04
     .324000000000D+06 -.670552253723D-07 -.278798113230D+01  .242143869400D-07
     .943364930959D+00  .250281250000D+03 -.312008721508D+01 -.837177728956D-08
     .218223375594D-09  .100000000000D+01  .221100000000D+04  .000000000000D+00
     .240000000000D+01  .000000000000D+00 -.838190317154D-08  .880000000000D+02
     .316800000000D+06  .400000000000D+01
22 22  5 25 18  0  0.0  .264968257397D-03  .613908923697D-11  .000000000000D+00
     .540000000000D+02 -.622187500000D+02  .439018286874D-08 -.283758930903D+01
    -.311248004436D-05  .133822221542D-01  .752508640289D-05  .515369351196D+04
     .324000000000D+06  .670552253723D-07 -.150050745649D+01 -.838190317154D-07
     .961047280300D+00  .233531250000D+03 -.185156117231D+01 -.777139513837D-08
    -.297869550320D-09  .100000000000D+01  .221100000000D+04  .000000000000D+00
     .240000000000D+01  .000000000000D+00 -.838190317154D-08  .540000000000D+02
     .316800000000D+06  .400000000000D+01
17 22  5 25 18  0  0.0  .617049634457D-03  .477484718431D-11  .000000000000D+00
     .730000000000D+02 -.564062500000D+02  .432446584565D-08 -.272059652011D+01
    -.278651714325D-05  .135146547109D-01  .626966357231D-05  .515355456352D+04
     .324000000000D+06  .186264514923D-06  .162037820172D+01  .221654772758D-06
     .978546187028D+00  .264156250000D+03 -.149305724920D+01 -.784532678935D-08
    -.227866634417D-09  .100000000000D+01  .221100000000D+04  .000000000000D+00
     .240000000000D+01  .000000000000D+00 -.111758708954D-07  .730000000000D+02
     .316800000000D+06  .400000000000D+01
25 22  5 25 18  0  0.0  .329219736159D-03  .477484718431D-11  .000000000000D+00
     .490000000000D+02  .683750000000D+02  .498056460336D-08 -.192290997943D+00
     .360235571861D-05  .105002499186D-01  .533089041710D-05  .515366600800D+04
     .324000000000D+06 -.428408384323D-07  .504126883434D+00  .128522515297D-06
     .956972440486D+00  .281437500000D+03  .100537904946D+01 -.857535719805D-08
     .320727645308D-09  .100000000000D+01  .221100000000D+04  .000000000000D+00
     .240000000000D+01  .000000000000D+00  .558793544769D-08  .490000000000D+02
     .316800000000D+06  .400000000000D+01
26 22  5 25 18  0  0.0  .208046752959D-03  .250111042988D-11  .000000000000D+00
     .790000000000D+02  .719375000000D+02  .521914596981D-08 -.865307354153D+00
     .388175249100D-05  .692900281865D-02  .463239848614D-05  .515375479126D+04
     .324000000000D+06  .139698386192D-06  .455290799752D+00 -.931322574615D-08
     .937824700735D+00  .273437500000D+03  .390537497351D+00 -.858678624554D-08
     .346085844436D-09  .100000000000D+01  .221100000000D+04  .000000000000D+00
     .240000000000D+01  .000000000000D+00  .698491930962D-08  .790000000000D+02
     .316800000000D+06  .400000000000D+01
18 22  5 25 18  0  0.0  .160468276590D-03 -.103455022327D-10  .000000000000D+00
     .540000000000D+02 -.172812500000D+02  .422053294500D-08  .174837800529D+01
    -.685453414917D-06  .231562333647D-02  .107400119305D-04  .515374002075D+04
     .324000000000D+06  .137835741043D-06  .262554390360D+01  .428408384323D-07
     .971785343309D+00  .177531250000D+03  .301235600399D+01 -.791782980939D-08
     .646455498895D-10  .100000000000D+01  .221100000000D+04  .000000000000D+00
     .240000000000D+01  .000000000000D+00 -.838190317154D-08  .822000000000D+03
     .316800000000D+06  .400000000000D+01
14 22  5 25 18  0  0.0 -.109724700451D-03 -.136424205266D-11  .000000000000D+00
     .225000000000D+03  .562187500000D+02  .500663711796D-08  .870991551608D-01
     .301189720631D-05  .190985691734D-02  .431947410107D-05  .515365633965D+04
     .324000000000D+06  .279396772385D-07  .549186236360D+00 -.298023223877D-07
     .952860651751D+00  .291937500000D+03  .310943604502D+01 -.846463830045D-08
     .282511767749D-09  .100000000000D+01  .221100000000D+04  .000000000000D+00
     .240000000000D+01  .000000000000D+00 -.791624188423D-08  .481000000000D+03
     .316800000000D+06  .400000000000D+01
11 22  5 25 18  0  0.0 -.208476558328D-04  .397903932026D-11  .000000000000D+00
     .820000000000D+02 -.146875000000D+01  .432803742299D-08 -.269820912340D+01
    -.149011611938D-06  .393740716390D-03  .108852982521D-04  .515358306503D+04
     .324000000000D+06 -.167638063431D-07  .266063749137D+01  .242143869400D-07
     .963166303971D+00  .169906250000D+03  .280246528963D+01 -.791568686299D-08
     .105004373854D-09  .100000000000D+01  .221100000000D+04  .000000000000D+00
     .240000000000D+01  .630000000000D+02 -.838190317154D-08  .338000000000D+03
     .316800000000D+06  .400000000000D+01
